OPS 6582 (TRANSIT 5B-5) 
1 00965U 64083D   21141.59704091  .00000035  00000-0  35870-4 0  9990
2 00965  90.0222 194.3690 0038878 295.7380 177.8351 13.56755887792495
OSCAR 7 (AO-7)          
1 07530U 74089B   21141.18733469 -.00000023  00000-0  14226-3 0  9997
2 07530 101.8524 115.7208 0012643  74.7392 297.3225 12.53648793128313
UOSAT 2 (UO-11)         
1 14781U 84021B   21141.27556097  .00000143  00000-0  23594-4 0  9991
2 14781  97.5927 142.4560 0008831 160.9481 199.2066 14.83284866981903
NOAA 9                  
1 15427U 84123A   21141.34818709  .00000006  00000-0  25981-4 0  9991
2 15427  98.9917 103.8480 0014488 193.8866 329.7502 14.16132587881119
LUSAT (LO-19)           
1 20442U 90005G   21141.39540191  .00000022  00000-0  24629-4 0  9998
2 20442  98.7395  96.6182 0010733 238.1281 121.8858 14.32986449636958
ITAMSAT (IO-26)         
1 22826U 93061D   21141.27927490  .00000015  00000-0  23541-4 0  9993
2 22826  98.9129 158.1380 0010085 100.3679 259.8640 14.30453509442341
RADIO ROSTO (RS-15)     
1 23439U 94085A   21141.56383570 -.00000037  00000-0  15882-3 0  9991
2 23439  64.8129  59.4473 0160534 340.1303  19.3415 11.27570804 87304
JAS-2 (FO-29)           
1 24278U 96046B   21141.16377791 -.00000025  00000-0  12282-4 0  9995
2 24278  98.5680 212.7546 0349634 220.2189 137.2599 13.53103998222555
NOAA 15                 
1 25338U 98030A   21141.35320860  .00000095  00000-0  58268-4 0  9994
2 25338  98.6838 170.1180 0010372   6.7877 353.3442 14.26030880197138
TECHSAT 1B (GO-32)      
1 25397U 98043D   21141.41885882 -.00000005  00000-0  17340-4 0  9998
2 25397  98.7695  87.0473 0001913 127.2534 232.8818 14.23708282187644
ISS (ZARYA)             
1 25544U 98067A   21141.52354488  .00015992  00000-0  29856-3 0  9997
2 25544  51.6434 114.6065 0003162  16.1368  90.6058 15.48929145284465
ORSTED                  
1 25635U 99008B   21141.42561237  .00000119  00000-0  36063-4 0  9999
2 25635  96.4740  92.3462 0138430 352.7751   7.1449 14.48290258173535
PHASE 3D (AO-40)        
1 26609U 00072B   21139.45643469 -.00000364  00000-0  00000-0 0  9993
2 26609   9.1817 328.0989 7947801 255.3166  13.7587  1.25587197 94227
PCSAT (NO-44)           
1 26931U 01043C   21141.33213907 -.00000012  00000-0  27264-4 0  9995
2 26931  67.0519 350.4329 0006712 262.1700  97.8640 14.30618941 25357
SAUDISAT 1C (SO-50)     
1 27607U 02058C   21141.12656899  .00000104  00000-0  35316-4 0  9999
2 27607  64.5566  61.9086 0037478  30.7223 329.6062 14.75748237990512
CUTE-1 (CO-55)          
1 27844U 03031E   21141.25170196  .00000081  00000-0  55816-4 0  9990
2 27844  98.6804 149.8773 0010427 151.4683 208.7068 14.22309065928117
CUBESAT XI-IV (CO-57)   
1 27848U 03031J   21141.30716138  .00000072  00000-0  52459-4 0  9992
2 27848  98.6861 150.4977 0010064 163.8957 196.2542 14.21886020927955
MOZHAYETS 4 (RS-22)     
1 27939U 03042A   21141.50810414  .00000273  00000-0  57399-4 0  9990
2 27939  98.1361 278.7976 0013089  12.3257 347.8273 14.66982919943574
INMARSAT 4-F1           
1 28628U 05009A   21141.38419045 -.00000256  00000-0  00000-0 0  9997
2 28628   3.3538  30.7687 0003125  33.3107  96.9676  1.00271830 59097
NOAA 18                 
1 28654U 05018A   21141.45973981  .00000096  00000-0  75978-4 0  9999
2 28654  98.9952 206.2147 0014098   3.1467 356.9791 14.12607465824633
CUBESAT XI-V            
1 28895U 05043F   21141.35897432  .00000212  00000-0  49496-4 0  9995
2 28895  98.0548 275.1949 0015446 297.8202  62.1435 14.63909877830045
METOP-A                 
1 29499U 06044A   21141.38253722  .00000014  00000-0  25681-4 0  9999
2 29499  98.4741 181.7302 0001419  71.6234  50.2203 14.21499153756715
CARTOSAT-2 (IRS-P7)     
1 29710U 07001B   21141.32032441  .00002799  00000-0  87830-4 0  9992
2 29710  97.8744 222.4534 0170568 341.6773  17.8363 15.21027650776524
FALCONSAT-3             
1 30776U 07006E   21140.69429323  .00005506  00000-0  13319-3 0  9998
2 30776  35.4342 278.6024 0002534 352.8473   7.2219 15.40550226788825
CAPE-1                  
1 31130U 07012P   21141.40149091  .00000224  00000-0  57621-4 0  9998
2 31130  98.2325  80.8392 0097155  68.4369 292.7150 14.56677736748010
CARTOSAT-2A             
1 32783U 08021A   21141.47657087  .00000296  00000-0  47218-4 0  9990
2 32783  97.8727 201.2838 0012603   3.1053 357.0235 14.78712575705096
CUTE-1.7+APD II (CO-65) 
1 32785U 08021C   21141.37980124  .00000405  00000-0  48943-4 0  9990
2 32785  97.6096 121.2763 0014586  92.6641 267.6247 14.88711532708142
COMPASS-1               
1 32787U 08021E   21141.40575893  .00000879  00000-0  87176-4 0  9995
2 32787  97.5284 133.4565 0013049  27.3170 332.8735 14.94105505709492
AAUSAT-II               
1 32788U 08021F   21140.72351342  .00001073  00000-0  10157-3 0  9992
2 32788  97.5042 136.5451 0011856  11.5563 348.5928 14.95554949709712
DELFI-C3 (DO-64)        
1 32789U 08021G   21141.35932166  .00002499  00000-0  16221-3 0  9993
2 32789  97.3782 177.7687 0010339 229.1351 130.8983 15.08905694712749
SEEDS II (CO-66)        
1 32791U 08021J   21141.39105024  .00000615  00000-0  66838-4 0  9993
2 32791  97.5699 127.2262 0014634  60.1072 300.1599 14.91390496708744
YUBILEINY (RS-30)       
1 32953U 08025A   21141.42701422  .00000028  00000-0  12906-3 0  9999
2 32953  82.5056  67.7375 0020746  38.3005 321.9549 12.43101945589626
FENGYUN 3A              
1 32958U 08026A   21141.40289030  .00000024  00000-0  31232-4 0  9999
2 32958  98.4484 116.3538 0009953  79.2188 281.0108 14.18656630672638
PRISM (HITOMI)          
1 33493U 09002B   21141.40322469  .00000534  00000-0  51180-4 0  9993
2 33493  98.1869 102.6456 0015656  20.3555 339.8287 14.97632496670275
STARS (KUKAI)           
1 33498U 09002G   21141.20726193  .00000335  00000-0  52323-4 0  9997
2 33498  98.2176  20.6847 0012259  75.3826 284.8743 14.79343901663438
KKS-1 (KISEKI)          
1 33499U 09002H   21141.41661870  .00000158  00000-0  31086-4 0  9997
2 33499  98.2725  10.7827 0010152 122.6308 237.5881 14.75655337662429
NOAA 19                 
1 33591U 09005A   21141.34950213  .00000095  00000-0  76789-4 0  9996
2 33591  99.1850 161.3818 0013524 204.5721 155.4807 14.12468627633091
SWISSCUBE               
1 35932U 09051B   21141.42619669  .00000209  00000-0  58016-4 0  9994
2 35932  98.6047 340.5959 0007822 161.7934 198.3544 14.56530729619027
BEESAT-1                
1 35933U 09051C   21141.39289370  .00000181  00000-0  51642-4 0  9990
2 35933  98.6013 342.3889 0005757 171.6888 188.4405 14.56589149619099
ITUPSAT1                
1 35935U 09051E   21140.55612957  .00000131  00000-0  41088-4 0  9998
2 35935  98.6118 341.6696 0007969 178.7071 181.4148 14.55721882618710
XIWANG-1 (HOPE-1)       
1 36122U 09072B   21141.47202505 -.00000050  00000-0 -18560-4 0  9997
2 36122 100.1301 123.2586 0007682 158.6272 201.5164 13.16360406549347
CARTOSAT-2B             
1 36795U 10035A   21141.44490900  .00000074  00000-0  16993-4 0  9991
2 36795  97.8699 200.6561 0015317  71.9285 288.3596 14.78694933586137
TISAT 1                 
1 36799U 10035E   21141.41916398  .00000675  00000-0  73171-4 0  9994
2 36799  98.2067 331.1425 0011013 306.5364  53.4839 14.91720814589304
FENGYUN 3B              
1 37214U 10059A   21141.55919451 -.00000002  00000-0  22515-4 0  9992
2 37214  99.0798 135.1395 0017632  33.1282  74.1704 14.15986793545523
JUGNU                   
1 37839U 11058B   21141.42416201  .00000337  00000-0  37511-4 0  9998
2 37839  19.9625  33.1200 0019017 154.3122   3.9400 14.12714554496637
SRMSAT                  
1 37841U 11058D   21141.25471709  .00000307  00000-0  23447-4 0  9996
2 37841  19.9714 105.4626 0011797 355.9624  33.6449 14.10695124495829
M-CUBED & EXP-1 PRIME   
1 37855U 11061F   21141.34579575  .00001918  00000-0  99141-4 0  9998
2 37855 101.7139  50.6957 0167140 151.2812 209.7731 15.07575424522090
HORYU-2                 
1 38340U 12025D   21141.43613665  .00000285  00000-0  49218-4 0  9994
2 38340  98.2338 208.2896 0012379  47.4550 312.7702 14.76035396474400
METOP-B                 
1 38771U 12049A   21141.43473918 -.00000016  00000-0  12589-4 0  9997
2 38771  98.7166 201.8507 0002349  94.6522  27.4300 14.21482057450047
SARAL                   
1 39086U 13009A   21141.42043318  .00000004  00000-0  17789-4 0  9993
2 39086  98.5464 327.8751 0001214  46.3725 313.7559 14.32052061430376
AAUSAT 3                
1 39087U 13009B   21141.48107306  .00000135  00000-0  61242-4 0  9996
2 39087  98.4269 345.3866 0012671   0.0669   0.0517 14.35931440431320
STRAND-1                
1 39090U 13009E   21141.35588989  .00000037  00000-0  27878-4 0  9994
2 39090  98.4300 344.1971 0009296   7.3372 352.7948 14.35175514431152
BRITE-AUSTRIA           
1 39091U 13009F   21141.41060474  .00000046  00000-0  31005-4 0  9993
2 39091  98.4302 343.3813 0010736  12.5320 347.6131 14.35187464431191
UNIBRITE                
1 39092U 13009G   21141.39706530  .00000024  00000-0  23449-4 0  9990
2 39092  98.4331 343.0711 0009527   8.3544 351.7799 14.35058315431159
SOMP                    
1 39134U 13015E   21141.44862909  .00002857  00000-0  13143-3 0  9998
2 39134  64.8636 260.2785 0006015 299.8295  60.2235 15.22504736447100
BEESAT-3                
1 39135U 13015F   21141.39121595  .00002315  00000-0  11841-3 0  9994
2 39135  64.8672 289.2112 0001577 222.9746 137.1258 15.19315066446506
BEESAT-2                
1 39136U 13015G   21141.37763086  .00002035  00000-0  10665-3 0  9992
2 39136  64.8752 295.5342 0024836 249.0506 110.7963 15.18674848446356
NEE-01 PEGASO           
1 39151U 13018B   21141.25296111  .00000279  00000-0  43514-4 0  9997
2 39151  97.9770 243.8698 0018425  86.9912 273.3408 14.80343089435644
CUBEBUG-1 (CAPITAN BETO)
1 39153U 13018D   21141.28115602  .00000329  00000-0  49391-4 0  9992
2 39153  97.9917 247.0746 0018265  82.6243 277.7044 14.80923489435700
